GLOBALSTAR M023         
1 25621U 99004A   25251.50820192  .00000000  00000+0  57629-3 0  9991
2 25621  52.0098 159.7268 0010015 313.8967 216.6599 12.62505016226257
GLOBALSTAR M040         
1 25622U 99004B   25251.51605142 -.00000073  00000+0  16955-3 0  9997
2 25622  51.9908 163.9809 0000311 176.2633 354.8621 12.62016491225774
GLOBALSTAR M036         
1 25623U 99004C   25251.43114127 -.00000059  00000+0  33906-3 0  9996
2 25623  51.9995  20.9051 0010700 206.7823 194.8326 11.86608093188867
GLOBALSTAR M038         
1 25624U 99004D   25251.56804355 -.00000086  00000+0  75165-4 0  9994
2 25624  51.9960 191.4432 0001337 229.8699 301.2208 12.32531777212654
GLOBALSTAR M022         
1 25649U 99012A   25251.43469878 -.00000081  00000+0  74630-4 0  9994
2 25649  52.0042  64.5944 0002507 357.9301  15.9897 12.02502598186395
GLOBALSTAR M041         
1 25650U 99012B   25251.41067541 -.00000101  00000+0 -20414-3 0  9999
2 25650  52.0035 308.6544 0001725 121.4423 238.6583 11.96683102188242
GLOBALSTAR M046         
1 25651U 99012C   25251.64150668 -.00000021  00000+0  74792-3 0  9996
2 25651  52.0086  11.1214 0002593  72.6198 300.9863 12.09412252193767
GLOBALSTAR M037         
1 25652U 99012D   25251.47371697 -.00000079  00000+0  13635-3 0  9997
2 25652  52.0002 290.4230 0001990  20.5352  73.1353 12.62450595221799
